NORAD_CAT_ID,OBJECT_NAME,OBJECT_TYPE,EPOCH,MEAN_MOTION,ECCENTRICITY,INCLINATION,RA_OF_ASC_NODE,ARG_OF_PERICENTER,MEAN_ANOMALY,BSTAR,MEAN_MOTION_DOT,MEAN_MOTION_DDOT,TLE_LINE0,TLE_LINE1,TLE_LINE2,SEMIMAJOR_AXIS,PERIOD,APOGEE,PERIGEE,DECAYED
53155.0,STARLINK-4088,PAYLOAD,2023-03-08 15:43:43,15.08844374,9.79e-05,53.2175,48.9007,94.7614,265.349,0.00021166,3.083e-05,0.0,0 STARLINK-4088,1 53155U 22083Z   23067.65536271  .00003083  00000-0  21166-3 0  9990,2 53155  53.2175  48.9007 0000979  94.7614 265.3490 15.08844374 36370,6917.867,95.437,540.409,539.055,0.0
53155.0,STARLINK-4088,PAYLOAD,2023-03-09 02:51:25,15.08873224,6.96e-05,53.2178,46.82,143.1239,216.9801,0.0035411,0.00056572,0.0,0 STARLINK-4088,1 53155U 22083Z   23068.11904142  .00056572  00000-0  35411-2 0  9996,2 53155  53.2178  46.8200 0000696 143.1239 216.9801 15.08873224 36445,6917.779,95.435,540.125,539.162,0.0
53155.0,STARLINK-4088,PAYLOAD,2023-03-09 15:34:30,15.08861893,0.0001039,53.2186,44.4405,87.1749,272.9362,0.0016257,0.00025695,0.0,0 STARLINK-4088,1 53155U 22083Z   23068.64895877  .00025695  00000-0  16257-2 0  9997,2 53155  53.2186  44.4405 0001039  87.1749 272.9362 15.08861893 36522,6917.813,95.436,540.397,538.96,0.0
53155.0,STARLINK-4088,PAYLOAD,2023-03-09 21:56:02,15.08865067,0.0002237,53.2174,43.2529,82.7955,277.3291,0.001764,0.00027917,0.0,0 STARLINK-4088,1 53155U 22083Z   23068.91392167  .00027917  00000-0  17640-2 0  9997,2 53155  53.2174  43.2529 0002237  82.7955 277.3291 15.08865067 36576,6917.804,95.436,541.216,538.121,0.0
53155.0,STARLINK-4088,PAYLOAD,2023-03-10 02:42:11,15.08866325,0.0001113,53.218,42.3597,92.043,268.069,0.0022777,0.00036174,0.0,0 STARLINK-4088,1 53155U 22083Z   23069.11263781  .00036174  00000-0  22777-2 0  9991,2 53155  53.2180  42.3597 0001113  92.0430 268.0690 15.08866325 36592,6917.8,95.436,540.435,538.895,0.0
53155.0,STARLINK-4088,PAYLOAD,2023-03-10 15:25:17,15.08857521,0.0001515,53.218,39.9803,63.9778,296.137,0.0016245,0.00025673,0.0,0 STARLINK-4088,1 53155U 22083Z   23069.64255971  .00025673  00000-0  16245-2 0  9996,2 53155  53.2180  39.9803 0001515  63.9778 296.1370 15.08857521 36676,6917.827,95.436,540.74,538.644,0.0
53155.0,STARLINK-4088,PAYLOAD,2023-03-10 21:46:50,15.08827682,0.0001641,53.218,38.791,85.0778,275.0402,0.0011271,0.00017689,0.0,0 STARLINK-4088,1 53155U 22083Z   23069.90752452  .00017689  00000-0  11271-2 0  9993,2 53155  53.2180  38.7910 0001641  85.0778 275.0402 15.08827682 36720,6917.918,95.438,540.918,538.648,0.0
53155.0,STARLINK-4088,PAYLOAD,2023-03-11 04:08:23,15.08832222,0.0001305,53.218,37.6016,71.6432,288.4702,0.0025328,0.00040243,0.0,0 STARLINK-4088,1 53155U 22083Z   23070.17248905  .00040243  00000-0  25328-2 0  9997,2 53155  53.2180  37.6016 0001305  71.6432 288.4702 15.08832222 36750,6917.904,95.438,540.672,538.866,0.0
53155.0,STARLINK-4088,PAYLOAD,2023-03-11 21:37:37,15.08850297,0.0001178,53.2166,34.3301,70.459,289.6529,0.0013276,0.0002091,0.0,0 STARLINK-4088,1 53155U 22083Z   23070.90113177  .00020910  00000-0  13276-2 0  9998,2 53155  53.2166  34.3301 0001178  70.4590 289.6529 15.08850297 36870,6917.849,95.437,540.529,538.899,0.0
53155.0,STARLINK-4088,PAYLOAD,2023-03-12 07:09:56,15.08873532,0.0001256,53.2172,32.5454,78.6456,281.4677,0.0015912,0.0002515,0.0,0 STARLINK-4088,1 53155U 22083Z   23071.29856488  .00025150  00000-0  15912-2 0  9990,2 53155  53.2172  32.5454 0001256  78.6456 281.4677 15.08873532 36932,6917.778,95.435,540.512,538.774,0.0
53155.0,STARLINK-4088,PAYLOAD,2023-03-12 21:28:24,15.08858219,0.0001341,53.2172,29.8701,79.6216,280.4928,0.00095147,0.00014895,0.0,0 STARLINK-4088,1 53155U 22083Z   23071.89472439  .00014895  00000-0  95147-3 0  9999,2 53155  53.2172  29.8701 0001341  79.6216 280.4928 15.08858219 37020,6917.825,95.436,540.617,538.762,0.0
53155.0,STARLINK-4088,PAYLOAD,2023-03-12 23:03:47,15.08854076,8.24e-05,53.217,29.5724,105.6381,254.4703,0.00092697,0.00014501,0.0,0 STARLINK-4088,1 53155U 22083Z   23071.96096285  .00014501  00000-0  92697-3 0  9999,2 53155  53.2170  29.5724 0000824 105.6381 254.4703 15.08854076 37027,6917.837,95.437,540.272,539.132,0.0
53155.0,STARLINK-4088,PAYLOAD,2023-03-13 07:00:42,15.08865514,0.0001044,53.2174,28.0867,82.4683,277.6428,0.0011919,0.00018745,0.0,0 STARLINK-4088,1 53155U 22083Z   23072.29215855  .00018745  00000-0  11919-2 0  9993,2 53155  53.2174  28.0867 0001044  82.4683 277.6428 15.08865514 37081,6917.802,95.436,540.39,538.945,0.0
53155.0,STARLINK-4088,PAYLOAD,2023-03-13 21:19:11,15.0883062,8.52e-05,53.2184,25.4092,136.8914,223.2145,0.00076743,0.00011944,0.0,0 STARLINK-4088,1 53155U 22083Z   23072.88832511  .00011944  00000-0  76743-3 0  9993,2 53155  53.2184  25.4092 0000852 136.8914 223.2145 15.08830620 37162,6917.909,95.438,540.363,539.185,0.0
53155.0,STARLINK-4088,PAYLOAD,2023-03-14 06:51:30,15.08851733,6.39e-05,53.2181,23.6261,130.1173,229.9875,0.0018681,0.00029577,0.0,0 STARLINK-4088,1 53155U 22083Z   23073.28576536  .00029577  00000-0  18681-2 0  9997,2 53155  53.2181  23.6261 0000639 130.1173 229.9875 15.08851733 37222,6917.845,95.437,540.152,539.267,0.0
53155.0,STARLINK-4088,PAYLOAD,2023-03-14 13:13:02,15.08845171,0.0001088,53.2182,22.4346,87.8572,272.2544,0.00078734,0.00012267,0.0,0 STARLINK-4088,1 53155U 22083Z   23073.55072909  .00012267  00000-0  78734-3 0  9996,2 53155  53.2182  22.4346 0001088  87.8572 272.2544 15.08845171 37272,6917.865,95.437,540.482,538.977,0.0
53155.0,STARLINK-4088,PAYLOAD,2023-03-15 03:31:30,15.08878765,5.6e-05,53.216,19.7613,145.4703,214.6326,0.0014566,0.00022994,0.0,0 STARLINK-4088,1 53155U 22083Z   23074.14687661  .00022994  00000-0  14566-2 0  9999,2 53155  53.2160  19.7613 0000560 145.4703 214.6326 15.08878765 37357,6917.762,95.435,540.014,539.24,0.0
53155.0,STARLINK-4088,PAYLOAD,2023-03-15 06:42:16,15.08901069,9.37e-05,53.2173,19.1674,138.8431,221.2632,0.0027002,0.0004302,0.0,0 STARLINK-4088,1 53155U 22083Z   23074.27935225  .00043020  00000-0  27002-2 0  9997,2 53155  53.2173  19.1674 0000937 138.8431 221.2632 15.08901069 37374,6917.694,95.434,540.207,538.911,0.0
53155.0,STARLINK-4088,PAYLOAD,2023-03-16 04:57:40,15.08846939,0.0001117,53.2162,15.0035,131.6775,228.4313,0.0016074,0.00025391,0.0,0 STARLINK-4088,1 53155U 22083Z   23075.20672032  .00025391  00000-0  16074-2 0  9993,2 53155  53.2162  15.0035 0001117 131.6775 228.4313 15.08846939 37516,6917.859,95.437,540.497,538.951,0.0
53155.0,STARLINK-4088,PAYLOAD,2023-03-16 19:16:09,15.08831438,0.000134,53.2169,12.3276,93.9728,266.1417,0.0025142,0.00039943,0.0,0 STARLINK-4088,1 53155U 22083Z   23075.80288958  .00039943  00000-0  25142-2 0  9993,2 53155  53.2169  12.3276 0001340  93.9728 266.1417 15.08831438 37608,6917.907,95.438,540.699,538.845,0.0
53155.0,STARLINK-4088,PAYLOAD,2023-03-17 03:13:05,15.08843908,7.08e-05,53.2163,10.8397,87.5395,272.5679,0.001257,0.00019776,0.0,0 STARLINK-4088,1 53155U 22083Z   23076.13408840  .00019776  00000-0  12570-2 0  9997,2 53155  53.2163  10.8397 0000708  87.5395 272.5679 15.08843908 37656,6917.868,95.437,540.223,539.244,0.0
53155.0,STARLINK-4088,PAYLOAD,2023-03-17 12:45:24,15.08842414,8.41e-05,53.2165,9.0562,87.3899,272.719,0.00072,0.0001119,0.0,0 STARLINK-4088,1 53155U 22083Z   23076.53152971  .00011190  00000-0  72000-3 0  9999,2 53155  53.2165   9.0562 0000841  87.3899 272.7190 15.08842414 37715,6917.873,95.437,540.32,539.156,0.0
53155.0,STARLINK-4088,PAYLOAD,2023-03-17 19:06:56,15.08844085,9.31e-05,53.2162,7.8674,85.7807,274.3292,0.00056153,8.661e-05,0.0,0 STARLINK-4088,1 53155U 22083Z   23076.79648986  .00008661  00000-0  56153-3 0  9993,2 53155  53.2162   7.8674 0000931  85.7807 274.3292 15.08844085 37765,6917.868,95.437,540.377,539.089,0.0
53155.0,STARLINK-4088,PAYLOAD,2023-03-18 12:36:11,15.0884068,9.16e-05,53.2164,4.5957,86.7537,273.356,0.00022389,3.277e-05,0.0,0 STARLINK-4088,1 53155U 22083Z   23077.52512914  .00003277  00000-0  22389-3 0  9998,2 53155  53.2164   4.5957 0000916  86.7537 273.3560 15.08840680 37864,6917.878,95.438,540.377,539.11,0.0
53155.0,STARLINK-4088,PAYLOAD,2023-03-19 12:26:58,15.08845566,0.0001177,53.2171,0.1354,85.146,274.9667,0.00038774,5.889e-05,0.0,0 STARLINK-4088,1 53155U 22083Z   23078.51873176  .00005889  00000-0  38774-3 0  9994,2 53155  53.2171   0.1354 0001177  85.1460 274.9667 15.08845566 38025,6917.863,95.437,540.543,538.914,0.0
53155.0,STARLINK-4088,PAYLOAD,2023-03-19 21:59:17,15.08843581,0.000118,53.2163,358.3511,83.6924,276.4203,0.00038303,5.814e-05,0.0,0 STARLINK-4088,1 53155U 22083Z   23078.91617377  .00005814  00000-0  38303-3 0  9993,2 53155  53.2163 358.3511 0001180  83.6924 276.4203 15.08843581 38085,6917.869,95.437,540.551,538.918,0.0
53155.0,STARLINK-4088,PAYLOAD,2023-03-20 01:10:03,15.08848728,0.00012,53.217,357.7552,92.53,267.5829,0.00052335,8.053e-05,0.0,0 STARLINK-4088,1 53155U 22083Z   23079.04865220  .00008053  00000-0  52335-3 0  9999,2 53155  53.2170 357.7552 0001200  92.5300 267.5829 15.08848728 38095,6917.854,95.437,540.549,538.889,0.0
53155.0,STARLINK-4088,PAYLOAD,2023-03-21 04:11:36,15.08853531,0.00011,53.2167,352.7012,75.3518,284.7596,0.00044592,6.819e-05,0.0,0 STARLINK-4088,1 53155U 22083Z   23080.17473162  .00006819  00000-0  44592-3 0  9999,2 53155  53.2167 352.7012 0001100  75.3518 284.7596 15.08853531 38265,6917.839,95.437,540.465,538.943,0.0
53155.0,STARLINK-4088,PAYLOAD,2023-03-21 21:40:51,15.08840871,0.0001119,53.2162,349.4274,65.7853,294.3255,6.4714e-05,7.42e-06,0.0,0 STARLINK-4088,1 53155U 22083Z   23080.90337493  .00000742  00000-0  64714-4 0  9994,2 53155  53.2162 349.4274 0001119  65.7853 294.3255 15.08840871 38383,6917.878,95.437,540.517,538.969,0.0
53155.0,STARLINK-4088,PAYLOAD,2023-03-22 04:02:23,15.08855388,9.6e-05,53.217,348.2402,68.8691,291.2404,0.00047712,7.317e-05,0.0,0 STARLINK-4088,1 53155U 22083Z   23081.16832830  .00007317  00000-0  47712-3 0  9991,2 53155  53.2170 348.2402 0000960  68.8691 291.2404 15.08855388 38414,6917.833,95.437,540.362,539.034,0.0
